[{"OBJECT_NAME":"ONEWEB-0232","OBJECT_ID":"2021-045Q","EPOCH":"2026-01-26T03:31:14.350368","MEAN_MOTION":13.15548019,"ECCENTRICITY":0.00015588,"INCLINATION":87.9013,"RA_OF_ASC_NODE":287.5213,"ARG_OF_PERICENTER":77.0539,"MEAN_ANOMALY":283.0766,"EPHEMERIS_TYPE":0,"CLASSIFICATION_TYPE":"U","NORAD_CAT_ID":48781,"ELEMENT_SET_NO":999,"REV_AT_EPOCH":22597,"BSTAR":3.4213979e-5,"MEAN_MOTION_DOT":2.6e-7,"MEAN_MOTION_DDOT":0},{"OBJECT_NAME":"ONEWEB-0231","OBJECT_ID":"2021-045R","EPOCH":"2026-01-26T06:38:19.903200","MEAN_MOTION":13.15548494,"ECCENTRICITY":0.00013642,"INCLINATION":87.8994,"RA_OF_ASC_NODE":287.53,"ARG_OF_PERICENTER":71.2953,"MEAN_ANOMALY":288.8325,"EPHEMERIS_TYPE":0,"CLASSIFICATION_TYPE":"U","NORAD_CAT_ID":48782,"ELEMENT_SET_NO":999,"REV_AT_EPOCH":22568,"BSTAR":-0.00065329738,"MEAN_MOTION_DOT":-2.33e-6,"MEAN_MOTION_DDOT":0},{"OBJECT_NAME":"ONEWEB-0234","OBJECT_ID":"2021-045S","EPOCH":"2026-01-26T03:53:51.332352","MEAN_MOTION":13.1554709,"ECCENTRICITY":0.00019356,"INCLINATION":87.9,"RA_OF_ASC_NODE":287.529,"ARG_OF_PERICENTER":103.8411,"MEAN_ANOMALY":256.2935,"EPHEMERIS_TYPE":0,"CLASSIFICATION_TYPE":"U","NORAD_CAT_ID":48783,"ELEMENT_SET_NO":999,"REV_AT_EPOCH":22580,"BSTAR":0.00035100754,"MEAN_MOTION_DOT":1.45e-6,"MEAN_MOTION_DDOT":0},{"OBJECT_NAME":"ONEWEB-0238","OBJECT_ID":"2021-045T","EPOCH":"2026-01-26T03:54:14.415840","MEAN_MOTION":13.15548357,"ECCENTRICITY":0.00017407,"INCLINATION":87.9,"RA_OF_ASC_NODE":287.5222,"ARG_OF_PERICENTER":92.2721,"MEAN_ANOMALY":267.8608,"EPHEMERIS_TYPE":0,"CLASSIFICATION_TYPE":"U","NORAD_CAT_ID":48784,"ELEMENT_SET_NO":999,"REV_AT_EPOCH":22570,"BSTAR":-0.00029377439,"MEAN_MOTION_DOT":-9.8e-7,"MEAN_MOTION_DDOT":0},{"OBJECT_NAME":"ONEWEB-0240","OBJECT_ID":"2021-045U","EPOCH":"2026-01-26T06:14:23.022816","MEAN_MOTION":13.15549986,"ECCENTRICITY":0.00012218,"INCLINATION":87.9009,"RA_OF_ASC_NODE":287.5016,"ARG_OF_PERICENTER":81.5994,"MEAN_ANOMALY":278.5275,"EPHEMERIS_TYPE":0,"CLASSIFICATION_TYPE":"U","NORAD_CAT_ID":48785,"ELEMENT_SET_NO":999,"REV_AT_EPOCH":22574,"BSTAR":0.0002785367,"MEAN_MOTION_DOT":1.18e-6,"MEAN_MOTION_DDOT":0},{"OBJECT_NAME":"ONEWEB-0246","OBJECT_ID":"2021-045V","EPOCH":"2026-01-26T06:06:23.862240","MEAN_MOTION":13.15548768,"ECCENTRICITY":0.00015051,"INCLINATION":87.9008,"RA_OF_ASC_NODE":287.5122,"ARG_OF_PERICENTER":73.0767,"MEAN_ANOMALY":287.0528,"EPHEMERIS_TYPE":0,"CLASSIFICATION_TYPE":"U","NORAD_CAT_ID":48786,"ELEMENT_SET_NO":999,"REV_AT_EPOCH":22561,"BSTAR":-3.7002082e-5,"MEAN_MOTION_DOT":-1.0e-8,"MEAN_MOTION_DDOT":0},{"OBJECT_NAME":"ONEWEB-0210","OBJECT_ID":"2021-045W","EPOCH":"2026-01-26T03:40:22.543680","MEAN_MOTION":13.15548635,"ECCENTRICITY":0.00012975,"INCLINATION":87.9001,"RA_OF_ASC_NODE":287.5302,"ARG_OF_PERICENTER":52.0439,"MEAN_ANOMALY":308.0808,"EPHEMERIS_TYPE":0,"CLASSIFICATION_TYPE":"U","NORAD_CAT_ID":48787,"ELEMENT_SET_NO":999,"REV_AT_EPOCH":22564,"BSTAR":0.00013810464,"MEAN_MOTION_DOT":6.5e-7,"MEAN_MOTION_DDOT":0},{"OBJECT_NAME":"ONEWEB-0214","OBJECT_ID":"2021-045X","EPOCH":"2026-01-26T03:52:54.541632","MEAN_MOTION":13.15547644,"ECCENTRICITY":0.00015736,"INCLINATION":87.9007,"RA_OF_ASC_NODE":287.5229,"ARG_OF_PERICENTER":61.2759,"MEAN_ANOMALY":298.8529,"EPHEMERIS_TYPE":0,"CLASSIFICATION_TYPE":"U","NORAD_CAT_ID":48788,"ELEMENT_SET_NO":999,"REV_AT_EPOCH":22561,"BSTAR":0.00037803452,"MEAN_MOTION_DOT":1.55e-6,"MEAN_MOTION_DDOT":0},{"OBJECT_NAME":"ONEWEB-0221","OBJECT_ID":"2021-045Y","EPOCH":"2026-01-26T04:03:10.838880","MEAN_MOTION":13.15548156,"ECCENTRICITY":0.00013884,"INCLINATION":87.9001,"RA_OF_ASC_NODE":287.5335,"ARG_OF_PERICENTER":74.7074,"MEAN_ANOMALY":285.421,"EPHEMERIS_TYPE":0,"CLASSIFICATION_TYPE":"U","NORAD_CAT_ID":48789,"ELEMENT_SET_NO":999,"REV_AT_EPOCH":22570,"BSTAR":-0.00015676378,"MEAN_MOTION_DOT":-4.6e-7,"MEAN_MOTION_DDOT":0},{"OBJECT_NAME":"ONEWEB-0213","OBJECT_ID":"2021-045Z","EPOCH":"2026-01-26T03:47:12.628320","MEAN_MOTION":13.15548161,"ECCENTRICITY":0.0001308,"INCLINATION":87.8998,"RA_OF_ASC_NODE":287.5396,"ARG_OF_PERICENTER":68.3665,"MEAN_ANOMALY":291.7605,"EPHEMERIS_TYPE":0,"CLASSIFICATION_TYPE":"U","NORAD_CAT_ID":48790,"ELEMENT_SET_NO":999,"REV_AT_EPOCH":22576,"BSTAR":0.00032516202,"MEAN_MOTION_DOT":1.35e-6,"MEAN_MOTION_DDOT":0},{"OBJECT_NAME":"ONEWEB-0212","OBJECT_ID":"2021-045AA","EPOCH":"2026-01-26T03:14:06.561024","MEAN_MOTION":13.15548956,"ECCENTRICITY":0.00015994,"INCLINATION":87.9009,"RA_OF_ASC_NODE":287.5376,"ARG_OF_PERICENTER":78.8785,"MEAN_ANOMALY":281.2525,"EPHEMERIS_TYPE":0,"CLASSIFICATION_TYPE":"U","NORAD_CAT_ID":48791,"ELEMENT_SET_NO":999,"REV_AT_EPOCH":22575,"BSTAR":-0.00074949805,"MEAN_MOTION_DOT":-2.69e-6,"MEAN_MOTION_DDOT":0},{"OBJECT_NAME":"ONEWEB-0227","OBJECT_ID":"2021-045AB","EPOCH":"2026-01-26T03:12:59.009184","MEAN_MOTION":13.15548895,"ECCENTRICITY":0.00014653,"INCLINATION":87.8989,"RA_OF_ASC_NODE":287.5444,"ARG_OF_PERICENTER":75.9644,"MEAN_ANOMALY":284.165,"EPHEMERIS_TYPE":0,"CLASSIFICATION_TYPE":"U","NORAD_CAT_ID":48792,"ELEMENT_SET_NO":999,"REV_AT_EPOCH":22570,"BSTAR":-0.00063733301,"MEAN_MOTION_DOT":-2.27e-6,"MEAN_MOTION_DDOT":0},{"OBJECT_NAME":"ONEWEB-0226","OBJECT_ID":"2021-045AC","EPOCH":"2026-01-26T06:42:53.967456","MEAN_MOTION":13.15548143,"ECCENTRICITY":0.00013803,"INCLINATION":87.8996,"RA_OF_ASC_NODE":287.5246,"ARG_OF_PERICENTER":65.358,"MEAN_ANOMALY":294.7694,"EPHEMERIS_TYPE":0,"CLASSIFICATION_TYPE":"U","NORAD_CAT_ID":48793,"ELEMENT_SET_NO":999,"REV_AT_EPOCH":22569,"BSTAR":-0.00010001101,"MEAN_MOTION_DOT":-2.5e-7,"MEAN_MOTION_DDOT":0},{"OBJECT_NAME":"ONEWEB-0224","OBJECT_ID":"2021-045AD","EPOCH":"2026-01-26T04:00:53.518176","MEAN_MOTION":13.15547653,"ECCENTRICITY":0.00012532,"INCLINATION":87.8994,"RA_OF_ASC_NODE":287.5829,"ARG_OF_PERICENTER":114.6032,"MEAN_ANOMALY":245.5229,"EPHEMERIS_TYPE":0,"CLASSIFICATION_TYPE":"U","NORAD_CAT_ID":48794,"ELEMENT_SET_NO":999,"REV_AT_EPOCH":22560,"BSTAR":0.00042485076,"MEAN_MOTION_DOT":1.73e-6,"MEAN_MOTION_DDOT":0},{"OBJECT_NAME":"ONEWEB-0233","OBJECT_ID":"2021-045AE","EPOCH":"2026-01-26T04:07:32.871936","MEAN_MOTION":13.15548371,"ECCENTRICITY":0.00012252,"INCLINATION":87.8995,"RA_OF_ASC_NODE":287.5918,"ARG_OF_PERICENTER":77.2385,"MEAN_ANOMALY":282.8882,"EPHEMERIS_TYPE":0,"CLASSIFICATION_TYPE":"U","NORAD_CAT_ID":48795,"ELEMENT_SET_NO":999,"REV_AT_EPOCH":22562,"BSTAR":-4.1602846e-5,"MEAN_MOTION_DOT":-3.0e-8,"MEAN_MOTION_DDOT":0},{"OBJECT_NAME":"ONEWEB-0190","OBJECT_ID":"2021-045AF","EPOCH":"2026-01-26T03:49:30.196992","MEAN_MOTION":13.15548981,"ECCENTRICITY":9.117e-5,"INCLINATION":87.8992,"RA_OF_ASC_NODE":287.5552,"ARG_OF_PERICENTER":57.8065,"MEAN_ANOMALY":302.3153,"EPHEMERIS_TYPE":0,"CLASSIFICATION_TYPE":"U","NORAD_CAT_ID":48796,"ELEMENT_SET_NO":999,"REV_AT_EPOCH":22569,"BSTAR":0.00029641375,"MEAN_MOTION_DOT":1.24e-6,"MEAN_MOTION_DDOT":0}]
