ONEWEB-0232             
1 48781U 21045Q   26026.14669387  .00000026  00000+0  34214-4 0  9995
2 48781  87.9013 287.5213 0001558  77.0539 283.0766 13.15548019225970
ONEWEB-0231             
1 48782U 21045R   26026.27661925 -.00000233  00000+0 -65330-3 0  9994
2 48782  87.8994 287.5300 0001364  71.2953 288.8325 13.15548494225685
ONEWEB-0234             
1 48783U 21045S   26026.16239968  .00000145  00000+0  35101-3 0  9994
2 48783  87.9000 287.5290 0001935 103.8411 256.2935 13.15547090225809
ONEWEB-0238             
1 48784U 21045T   26026.16266685 -.00000098  00000+0 -29377-3 0  9998
2 48784  87.9000 287.5222 0001740  92.2721 267.8608 13.15548357225705
ONEWEB-0240             
1 48785U 21045U   26026.25998869  .00000118  00000+0  27854-3 0  9994
2 48785  87.9009 287.5016 0001221  81.5994 278.5275 13.15549986225745
ONEWEB-0246             
1 48786U 21045V   26026.25444285 -.00000001  00000+0 -37002-4 0  9993
2 48786  87.9008 287.5122 0001505  73.0767 287.0528 13.15548768225611
ONEWEB-0210             
1 48787U 21045W   26026.15303870  .00000065  00000+0  13810-3 0  9995
2 48787  87.9001 287.5302 0001297  52.0439 308.0808 13.15548635225647
ONEWEB-0214             
1 48788U 21045X   26026.16174238  .00000155  00000+0  37803-3 0  9999
2 48788  87.9007 287.5229 0001573  61.2759 298.8529 13.15547644225618
ONEWEB-0221             
1 48789U 21045Y   26026.16887545 -.00000046  00000+0 -15676-3 0  9997
2 48789  87.9001 287.5335 0001388  74.7074 285.4210 13.15548156225702
ONEWEB-0213             
1 48790U 21045Z   26026.15778505  .00000135  00000+0  32516-3 0  9992
2 48790  87.8998 287.5396 0001308  68.3665 291.7605 13.15548161225762
ONEWEB-0212             
1 48791U 21045AA  26026.13479816 -.00000269  00000+0 -74950-3 0  9992
2 48791  87.9009 287.5376 0001599  78.8785 281.2525 13.15548956225752
ONEWEB-0227             
1 48792U 21045AB  26026.13401631 -.00000227  00000+0 -63733-3 0  9994
2 48792  87.8989 287.5444 0001465  75.9644 284.1650 13.15548895225707
ONEWEB-0226             
1 48793U 21045AC  26026.27979129 -.00000025  00000+0 -10001-3 0  9998
2 48793  87.8996 287.5246 0001380  65.3580 294.7694 13.15548143225693
ONEWEB-0224             
1 48794U 21045AD  26026.16728609  .00000173  00000+0  42485-3 0  9995
2 48794  87.8994 287.5829 0001253 114.6032 245.5229 13.15547653225602
ONEWEB-0233             
1 48795U 21045AE  26026.17190824 -.00000003  00000+0 -41603-4 0  9995
2 48795  87.8995 287.5918 0001225  77.2385 282.8882 13.15548371225626
ONEWEB-0190             
1 48796U 21045AF  26026.15937728  .00000124  00000+0  29641-3 0  9995
2 48796  87.8992 287.5552 0000911  57.8065 302.3153 13.15548981225691
